{
    "links": {
        "self": "http://www.neowsapp.com/rest/v1/neo/3591643?api_key=iIulBulltgU6a56xZRHN4H3l9WmuAYTsLGpBGhQ2"
    },
    "id": "3591643",
    "neo_reference_id": "3591643",
    "name": "(2011 YY10)",
    "designation": "2011 YY10",
    "nasa_jpl_url": "http://ssd.jpl.nasa.gov/sbdb.cgi?sstr=3591643",
    "absolute_magnitude_h": 24.3,
    "estimated_diameter": {
        "kilometers": {
            "estimated_diameter_min": 0.0366906138,
            "estimated_diameter_max": 0.0820427065
        },
        "meters": {
            "estimated_diameter_min": 36.6906137531,
            "estimated_diameter_max": 82.0427064882
        },
        "miles": {
            "estimated_diameter_min": 0.0227984834,
            "estimated_diameter_max": 0.0509789586
        },
        "feet": {
            "estimated_diameter_min": 120.3760332259,
            "estimated_diameter_max": 269.1689931548
        }
    },
    "is_potentially_hazardous_asteroid": false,
    "close_approach_data": [
        {
            "close_approach_date": "2011-12-24",
            "close_approach_date_full": "2011-Dec-24 07:07",
            "epoch_date_close_approach": 1324710420000,
            "relative_velocity": {
                "kilometers_per_second": "13.4650952542",
                "kilometers_per_hour": "48474.3429150293",
                "miles_per_hour": "30120.0715740636"
            },
            "miss_distance": {
                "astronomical": "0.1358587806",
                "lunar": "52.8490656534",
                "kilometers": "20324184.198557322",
                "miles": "12628862.4528501636"
            },
            "orbiting_body": "Earth"
        }
    ],
    "orbital_data": {
        "orbit_id": "4",
        "orbit_determination_date": "2017-04-06 08:51:41",
        "first_observation_date": "2011-12-26",
        "last_observation_date": "2011-12-27",
        "data_arc_in_days": 1,
        "observations_used": 14,
        "orbit_uncertainty": "9",
        "minimum_orbit_intersection": ".135636",
        "jupiter_tisserand_invariant": "4.258",
        "epoch_osculation": "2455922.5",
        "eccentricity": ".290818536653227",
        "semi_major_axis": "1.576126343186928",
        "inclination": "24.74198671666558",
        "ascending_node_longitude": "91.22229309902781",
        "orbital_period": "722.7447882490791",
        "perihelion_distance": "1.117759586480704",
        "perihelion_argument": "6.790573262364116",
        "aphelion_distance": "2.034493099893153",
        "perihelion_time": "2455925.651512001369",
        "mean_anomaly": "358.4302282922837",
        "mean_motion": ".4981011359101402",
        "equinox": "J2000",
        "orbit_class": {
            "orbit_class_type": "AMO",
            "orbit_class_description": "Near-Earth asteroid orbits similar to that of 1221 Amor",
            "orbit_class_range": "1.017 AU < q (perihelion) < 1.3 AU"
        }
    },
    "is_sentry_object": false
}